NORAD_CAT_ID,OBJECT_NAME,OBJECT_TYPE,EPOCH,MEAN_MOTION,ECCENTRICITY,INCLINATION,RA_OF_ASC_NODE,ARG_OF_PERICENTER,MEAN_ANOMALY,BSTAR,MEAN_MOTION_DOT,MEAN_MOTION_DDOT,TLE_LINE0,TLE_LINE1,TLE_LINE2,SEMIMAJOR_AXIS,PERIOD,APOGEE,PERIGEE,DECAYED
53149.0,STARLINK-4021,PAYLOAD,2023-09-19 22:00:00,15.07173765,0.0001325,53.2153,252.3482,94.7287,280.6462,0.0029943,0.00045551,0.0,0 STARLINK-4021,1 53149U 22083T   23262.91667824  .00045551  00000-0  29943-2 0  9994,2 53149  53.2153 252.3482 0001325  94.7287 280.6462 15.07173765 65851,6922.978,95.543,545.76,543.926,0.0
53149.0,STARLINK-4021,PAYLOAD,2023-09-20 14:00:01,15.0719683,0.0001365,53.2155,249.3643,87.3566,307.2463,-0.0010903,-0.00016837,0.0,0 STARLINK-4021,1 53149U 22083T   23263.58334491 -.00016837  00000-0 -10903-2 0  9992,2 53149  53.2155 249.3643 0001365  87.3566 307.2463 15.07196830 65956,6922.907,95.542,545.717,543.827,0.0
53149.0,STARLINK-4021,PAYLOAD,2023-09-20 22:00:00,15.0717846,0.0001431,53.2158,247.8706,97.9677,306.2507,0.0032535,0.00049553,0.0,0 STARLINK-4021,1 53149U 22083T   23263.91667824  .00049553  00000-0  32535-2 0  9992,2 53149  53.2158 247.8706 0001431  97.9677 306.2507 15.07178460  5711,6922.964,95.543,545.819,543.838,0.0
53149.0,STARLINK-4021,PAYLOAD,2023-09-21 06:00:00,15.07214095,0.0001455,53.2158,246.3798,90.8427,322.9974,-0.0016454,-0.00025247,0.0,0 STARLINK-4021,1 53149U 22083T   23264.25001157 -.00025247  00000-0 -16454-2 0  9999,2 53149  53.2158 246.3798 0001455  90.8427 322.9974 15.07214095 66059,6922.855,95.541,545.727,543.712,0.0
53149.0,STARLINK-4021,PAYLOAD,2023-09-21 14:00:01,15.07217042,0.000139,53.2157,244.8866,93.4342,330.031,-0.0011846,-0.00018275,0.0,0 STARLINK-4021,1 53149U 22083T   23264.58334491 -.00018275  00000-0 -11846-2 0  9998,2 53149  53.2157 244.8866 0001390  93.4342 330.0310 15.07217042  5816,6922.846,95.54,545.673,543.748,0.0
53149.0,STARLINK-4021,PAYLOAD,2023-09-21 22:00:01,15.07203117,0.0001447,53.2159,243.3929,102.1234,331.0428,0.0028874,0.0004394,0.0,0 STARLINK-4021,1 53149U 22083T   23264.91668981  .00043940  00000-0  28874-2 0  9993,2 53149  53.2159 243.3929 0001447 102.1234 331.0428 15.07203117 66156,6922.888,95.541,545.755,543.751,0.0
53149.0,STARLINK-4021,PAYLOAD,2023-09-22 00:00:02,15.07227597,0.0001447,53.216,243.0202,101.2772,64.2915,2.8075e-05,1.44e-06,0.0,0 STARLINK-4021,1 53149U 22083T   23265.00002315  .00000144  00000-0  28075-4 0  9991,2 53149  53.2160 243.0202 0001447 101.2772  64.2915 15.07227597  5827,6922.813,95.54,545.68,543.677,0.0
53149.0,STARLINK-4021,PAYLOAD,2023-09-22 14:00:01,15.07200307,0.0001365,53.2154,240.4088,89.4915,2.9031,-0.0010211,-0.0001579,0.0,0 STARLINK-4021,1 53149U 22083T   23265.58334491 -.00015790  00000-0 -10211-2 0  9993,2 53149  53.2154 240.4088 0001365  89.4915   2.9031 15.07200307 66250,6922.897,95.541,545.707,543.817,0.0
53149.0,STARLINK-4021,PAYLOAD,2023-09-22 22:00:00,15.07189785,0.0001406,53.2154,238.9154,97.0516,4.9567,0.0024032,0.00036472,0.0,0 STARLINK-4021,1 53149U 22083T   23265.91667824  .00036472  00000-0  24032-2 0  9993,2 53149  53.2154 238.9154 0001406  97.0516   4.9567 15.07189785  5608,6922.929,95.542,545.767,543.821,0.0
53149.0,STARLINK-4021,PAYLOAD,2023-09-23 02:19:27,15.07204524,0.0001678,53.2159,238.1073,112.7713,247.3456,5.3435e-05,5.3e-06,0.0,0 STARLINK-4021,1 53149U 22083T   23266.09684613  .00000530  00000-0  53435-4 0  9995,2 53149  53.2159 238.1073 0001678 112.7713 247.3456 15.07204524 66336,6922.884,95.541,545.911,543.587,0.0
53149.0,STARLINK-4021,PAYLOAD,2023-09-23 05:30:26,15.07208052,0.0001357,53.216,237.5151,96.4764,263.6382,0.00011246,1.429e-05,0.0,0 STARLINK-4021,1 53149U 22083T   23266.22946901  .00001429  00000-0  11246-3 0  9992,2 53149  53.2160 237.5151 0001357  96.4764 263.6382 15.07208052 65727,6922.873,95.541,545.678,543.799,0.0
53149.0,STARLINK-4021,PAYLOAD,2023-09-24 06:58:15,15.07209191,0.0001468,53.2162,232.765,92.4725,267.6435,3.5546e-05,2.58e-06,0.0,0 STARLINK-4021,1 53149U 22083T   23267.29045965  .00000258  00000-0  35546-4 0  9999,2 53149  53.2162 232.7650 0001468  92.4725 267.6435 15.07209191 66512,6922.87,95.541,545.751,543.718,0.0
53149.0,STARLINK-4021,PAYLOAD,2023-09-25 05:15:06,15.07220072,0.0001321,53.2163,228.6067,94.6161,265.4981,0.00031409,4.503e-05,0.0,0 STARLINK-4021,1 53149U 22083T   23268.21882093  .00004503  00000-0  31409-3 0  9993,2 53149  53.2163 228.6067 0001321  94.6161 265.4981 15.07220072 66024,6922.836,95.54,545.616,543.787,0.0
53149.0,STARLINK-4021,PAYLOAD,2023-09-25 14:48:02,15.0721737,0.0001211,53.2156,226.823,93.0203,267.0927,4.8662e-05,4.58e-06,0.0,0 STARLINK-4021,1 53149U 22083T   23268.61669096  .00000458  00000-0  48662-4 0  9998,2 53149  53.2156 226.8230 0001211  93.0203 267.0927 15.07217370 66717,6922.845,95.54,545.548,543.871,0.0
53149.0,STARLINK-4021,PAYLOAD,2023-09-25 21:09:59,15.07213024,0.0001551,53.2172,225.6365,87.7815,272.3354,0.00020538,2.845e-05,0.0,0 STARLINK-4021,1 53149U 22083T   23268.88194215  .00002845  00000-0  20538-3 0  9996,2 53149  53.2172 225.6365 0001551  87.7815 272.3354 15.07213024 66127,6922.858,95.541,545.797,543.649,0.0
53149.0,STARLINK-4021,PAYLOAD,2023-09-26 03:31:56,15.07225265,0.0001405,53.2163,224.449,103.2634,256.8514,0.00016652,2.254e-05,0.0,0 STARLINK-4021,1 53149U 22083T   23269.14718126  .00002254  00000-0  16652-3 0  9995,2 53149  53.2163 224.4490 0001405 103.2634 256.8514 15.07225265 66163,6922.82,95.54,545.658,543.713,0.0
53149.0,STARLINK-4021,PAYLOAD,2023-09-27 01:48:47,15.07206409,0.0001462,53.2156,220.2905,120.7318,239.3817,-6.6653e-05,-1.298e-05,0.0,0 STARLINK-4021,1 53149U 22083T   23270.07555469 -.00001298  00000-0 -66653-4 0  9994,2 53149  53.2156 220.2905 0001462 120.7318 239.3817 15.07206409 66932,6922.878,95.541,545.755,543.731,0.0
53149.0,STARLINK-4021,PAYLOAD,2023-09-27 06:35:16,15.07203875,0.0001308,53.2156,219.3999,108.9365,251.1768,-8.7128e-05,-1.609e-05,0.0,0 STARLINK-4021,1 53149U 22083T   23270.27449210 -.00001609  00000-0 -87128-4 0  9998,2 53149  53.2156 219.3999 0001308 108.9365 251.1768 15.07203875 66338,6922.886,95.541,545.656,543.845,0.0
53149.0,STARLINK-4021,PAYLOAD,2023-09-28 01:41:09,15.07192335,0.0001397,53.2163,215.8367,107.4856,252.6289,-0.00011917,-2.096e-05,0.0,0 STARLINK-4021,1 53149U 22083T   23271.07025175 -.00002096  00000-0 -11917-3 0  9990,2 53149  53.2163 215.8367 0001397 107.4856 252.6289 15.07192335 67088,6922.921,95.542,545.753,543.819,0.0
53149.0,STARLINK-4021,PAYLOAD,2023-09-28 06:27:37,15.07200288,0.0001806,53.2172,214.9438,120.6214,239.4955,-0.00018686,-3.126e-05,0.0,0 STARLINK-4021,1 53149U 22083T   23271.26918467 -.00003126  00000-0 -18686-3 0  9991,2 53149  53.2172 214.9438 0001806 120.6214 239.4955 15.07200288 67111,6922.897,95.541,546.012,543.512,0.0
53149.0,STARLINK-4021,PAYLOAD,2023-09-28 20:47:01,15.0719263,0.0001267,53.2173,212.2749,117.7577,242.3543,0.00016066,2.162e-05,0.0,0 STARLINK-4021,1 53149U 22083T   23271.86599066  .00002162  00000-0  16066-3 0  9994,2 53149  53.2173 212.2749 0001267 117.7577 242.3543 15.07192630 66574,6922.92,95.542,545.662,543.908,0.0
53149.0,STARLINK-4021,PAYLOAD,2023-09-28 23:57:59,15.07202625,0.0001325,53.2173,211.6795,114.5947,245.5183,0.00016193,2.182e-05,0.0,0 STARLINK-4021,1 53149U 22083T   23271.99860988  .00002182  00000-0  16193-3 0  9995,2 53149  53.2173 211.6795 0001325 114.5947 245.5183 15.07202625 67223,6922.89,95.541,545.672,543.837,0.0
53149.0,STARLINK-4021,PAYLOAD,2023-09-30 03:01:19,15.07189006,0.0001263,53.2177,206.6343,90.4748,269.6388,0.00061488,9.084e-05,0.0,0 STARLINK-4021,1 53149U 22083T   23273.12591565  .00009084  00000-0  61488-3 0  9999,2 53149  53.2177 206.6343 0001263  90.4748 269.6388 15.07189006 67391,6922.931,95.542,545.671,543.922,0.0
53149.0,STARLINK-4021,PAYLOAD,2023-10-01 04:29:08,15.07209081,0.0001396,53.217,201.8802,76.4484,283.6663,2.2608e-05,6.1e-07,0.0,0 STARLINK-4021,1 53149U 22083T   23274.18690432  .00000061  00000-0  22608-4 0  9997,2 53149  53.2170 201.8802 0001396  76.4484 283.6663 15.07209081 67555,6922.87,95.541,545.701,543.769,0.0
53149.0,STARLINK-4021,PAYLOAD,2023-10-01 12:26:35,15.0720908,0.0001305,53.2169,200.3957,90.4397,269.6744,-5.1781e-05,-1.072e-05,0.0,0 STARLINK-4021,1 53149U 22083T   23274.51846311 -.00001072  00000-0 -51781-4 0  9992,2 53149  53.2169 200.3957 0001305  90.4397 269.6744 15.07209080 66975,6922.87,95.541,545.638,543.832,0.0
53149.0,STARLINK-4021,PAYLOAD,2023-10-02 02:45:58,15.07222743,0.0001317,53.2169,197.7264,92.3317,267.7826,0.00021014,2.918e-05,0.0,0 STARLINK-4021,1 53149U 22083T   23275.11526211  .00002918  00000-0  21014-3 0  9996,2 53149  53.2169 197.7264 0001317  92.3317 267.7826 15.07222743 67692,6922.828,95.54,545.605,543.781,0.0
53149.0,STARLINK-4021,PAYLOAD,2023-10-02 12:18:55,15.07205484,0.0001354,53.2171,195.9447,88.5028,271.6118,1.8137e-05,-7e-08,0.0,0 STARLINK-4021,1 53149U 22083T   23275.51314130 -.00000007  00000-0  18137-4 0  9996,2 53149  53.2171 195.9447 0001354  88.5028 271.6118 15.07205484 67753,6922.881,95.541,545.683,543.809,0.0
53149.0,STARLINK-4021,PAYLOAD,2023-10-03 04:13:49,15.07197973,0.0001761,53.2171,192.9727,102.1522,257.9667,-1.0233e-05,-4.39e-06,0.0,0 STARLINK-4021,1 53149U 22083T   23276.17626884 -.00000439  00000-0 -10233-4 0  9990,2 53149  53.2171 192.9727 0001761 102.1522 257.9667 15.07197973 67855,6922.904,95.542,545.988,543.55,0.0
53149.0,STARLINK-4021,PAYLOAD,2023-10-03 12:11:16,15.07199794,0.0001614,53.2168,191.4895,100.3763,259.741,2.7212e-05,1.31e-06,0.0,0 STARLINK-4021,1 53149U 22083T   23276.50782855  .00000131  00000-0  27212-4 0  9990,2 53149  53.2168 191.4895 0001614 100.3763 259.7410 15.07199794 67270,6922.898,95.541,545.881,543.646,0.0
53149.0,STARLINK-4021,PAYLOAD,2023-10-03 21:44:12,15.07210562,0.0001527,53.2168,189.7089,99.4365,260.6799,0.00015181,2.028e-05,0.0,0 STARLINK-4021,1 53149U 22083T   23276.90569522  .00002028  00000-0  15181-3 0  9996,2 53149  53.2168 189.7089 0001527  99.4365 260.6799 15.07210562 67339,6922.865,95.541,545.788,543.673,0.0
